[{"CCSDS_OMM_VERS":"2.0","COMMENT":"GENERATED VIA SPACE-TRACK.ORG API","CREATION_DATE":"2015-06-05T07:20:10","ORIGINATOR":"18 SPCS","OBJECT_NAME":"GALILEO-FM2","OBJECT_ID":"2011-060B","CENTER_NAME":"EARTH","REF_FRAME":"TEME","TIME_SYSTEM":"UTC","MEAN_ELEMENT_THEORY":"SGP4","EPOCH":"2015-06-05T02:16:39.507743","MEAN_MOTION":"1.70474342","ECCENTRICITY":"0.00054000","INCLINATION":"55.2950","RA_OF_ASC_NODE":"92.5954","ARG_OF_PERICENTER":"300.3000","MEAN_ANOMALY":"153.6535","EPHEMERIS_TYPE":"0","CLASSIFICATION_TYPE":"U","NORAD_CAT_ID":"37847","ELEMENT_SET_NO":"999","REV_AT_EPOCH":"2254","BSTAR":"0.00000000000000","MEAN_MOTION_DOT":"-0.00000007","MEAN_MOTION_DDOT":"0.0000000000000","SEMIMAJOR_AXIS":"29600.280","PERIOD":"844.701","APOAPSIS":"23238.129","PERIAPSIS":"23206.161","OBJECT_TYPE":"PAYLOAD","RCS_SIZE":"LARGE","COUNTRY_CODE":"ESA","LAUNCH_DATE":"2011-10-21","SITE":"FRGUI","DECAY_DATE":null,"FILE":"1881400","GP_ID":"99340695","TLE_LINE0":"0 GALILEO-FM2","TLE_LINE1":"1 37847U 11060B   15156.09490171 -.00000007  00000-0  00000+0 0  9993","TLE_LINE2":"2 37847 055.2950 092.5954 0005400 300.3000 153.6535 01.70474342 22549"},{"CCSDS_OMM_VERS":"2.0","COMMENT":"GENERATED VIA SPACE-TRACK.ORG API","CREATION_DATE":"2015-06-08T15:19:30","ORIGINATOR":"18 SPCS","OBJECT_NAME":"GALILEO-FM2","OBJECT_ID":"2011-060B","CENTER_NAME":"EARTH","REF_FRAME":"TEME","TIME_SYSTEM":"UTC","MEAN_ELEMENT_THEORY":"SGP4","EPOCH":"2015-06-08T03:49:44.395103","MEAN_MOTION":"1.70474295","ECCENTRICITY":"0.00053050","INCLINATION":"55.2967","RA_OF_ASC_NODE":"92.5092","ARG_OF_PERICENTER":"300.8103","MEAN_ANOMALY":"233.9851","EPHEMERIS_TYPE":"0","CLASSIFICATION_TYPE":"U","NORAD_CAT_ID":"37847","ELEMENT_SET_NO":"999","REV_AT_EPOCH":"2259","BSTAR":"0.00000000000000","MEAN_MOTION_DOT":"-0.00000010","MEAN_MOTION_DDOT":"0.0000000000000","SEMIMAJOR_AXIS":"29600.285","PERIOD":"844.702","APOAPSIS":"23237.853","PERIAPSIS":"23206.447","OBJECT_TYPE":"PAYLOAD","RCS_SIZE":"LARGE","COUNTRY_CODE":"ESA","LAUNCH_DATE":"2011-10-21","SITE":"FRGUI","DECAY_DATE":null,"FILE":"1882884","GP_ID":"99370668","TLE_LINE0":"0 GALILEO-FM2","TLE_LINE1":"1 37847U 11060B   15159.15954161 -.00000010  00000-0  00000+0 0  9991","TLE_LINE2":"2 37847 055.2967 092.5092 0005305 300.8103 233.9851 01.70474295 22598"},{"CCSDS_OMM_VERS":"2.0","COMMENT":"GENERATED VIA SPACE-TRACK.ORG API","CREATION_DATE":"2015-06-10T23:19:26","ORIGINATOR":"18 SPCS","OBJECT_NAME":"GALILEO-FM2","OBJECT_ID":"2011-060B","CENTER_NAME":"EARTH","REF_FRAME":"TEME","TIME_SYSTEM":"UTC","MEAN_ELEMENT_THEORY":"SGP4","EPOCH":"2015-06-10T12:27:55.423871","MEAN_MOTION":"1.70474287","ECCENTRICITY":"0.00052290","INCLINATION":"55.2980","RA_OF_ASC_NODE":"92.4427","ARG_OF_PERICENTER":"301.2386","MEAN_ANOMALY":"241.8524","EPHEMERIS_TYPE":"0","CLASSIFICATION_TYPE":"U","NORAD_CAT_ID":"37847","ELEMENT_SET_NO":"999","REV_AT_EPOCH":"2263","BSTAR":"0.00000000000000","MEAN_MOTION_DOT":"-0.00000026","MEAN_MOTION_DDOT":"0.0000000000000","SEMIMAJOR_AXIS":"29600.286","PERIOD":"844.702","APOAPSIS":"23237.629","PERIAPSIS":"23206.673","OBJECT_TYPE":"PAYLOAD","RCS_SIZE":"LARGE","COUNTRY_CODE":"ESA","LAUNCH_DATE":"2011-10-21","SITE":"FRGUI","DECAY_DATE":null,"FILE":"1884029","GP_ID":"99392099","TLE_LINE0":"0 GALILEO-FM2","TLE_LINE1":"1 37847U 11060B   15161.51939148 -.00000026  00000-0  00000+0 0  9999","TLE_LINE2":"2 37847 055.2980 092.4427 0005229 301.2386 241.8524 01.70474287 22638"},{"CCSDS_OMM_VERS":"2.0","COMMENT":"GENERATED VIA SPACE-TRACK.ORG API","CREATION_DATE":"2015-06-16T23:47:19","ORIGINATOR":"18 SPCS","OBJECT_NAME":"GALILEO-FM2","OBJECT_ID":"2011-060B","CENTER_NAME":"EARTH","REF_FRAME":"TEME","TIME_SYSTEM":"UTC","MEAN_ELEMENT_THEORY":"SGP4","EPOCH":"2015-06-12T15:24:46.228608","MEAN_MOTION":"1.70474301","ECCENTRICITY":"0.00051360","INCLINATION":"55.2993","RA_OF_ASC_NODE":"92.3828","ARG_OF_PERICENTER":"301.7222","MEAN_ANOMALY":"104.1874","EPHEMERIS_TYPE":"0","CLASSIFICATION_TYPE":"U","NORAD_CAT_ID":"37847","ELEMENT_SET_NO":"999","REV_AT_EPOCH":"2267","BSTAR":"0.00000000000000","MEAN_MOTION_DOT":"-0.00000045","MEAN_MOTION_DDOT":"0.0000000000000","SEMIMAJOR_AXIS":"29600.284","PERIOD":"844.702","APOAPSIS":"23237.352","PERIAPSIS":"23206.947","OBJECT_TYPE":"PAYLOAD","RCS_SIZE":"LARGE","COUNTRY_CODE":"ESA","LAUNCH_DATE":"2011-10-21","SITE":"FRGUI","DECAY_DATE":null,"FILE":"1885868","GP_ID":"99463471","TLE_LINE0":"0 GALILEO-FM2","TLE_LINE1":"1 37847U 11060B   15163.64220172 -.00000045 +00000-0 +00000-0 0  9997","TLE_LINE2":"2 37847 055.2993 092.3828 0005136 301.7222 104.1874 01.70474301022677"},{"CCSDS_OMM_VERS":"2.0","COMMENT":"GENERATED VIA SPACE-TRACK.ORG API","CREATION_DATE":"2015-06-16T23:06:34","ORIGINATOR":"18 SPCS","OBJECT_NAME":"GALILEO-FM2","OBJECT_ID":"2011-060B","CENTER_NAME":"EARTH","REF_FRAME":"TEME","TIME_SYSTEM":"UTC","MEAN_ELEMENT_THEORY":"SGP4","EPOCH":"2015-06-12T20:39:41.512032","MEAN_MOTION":"1.70474309","ECCENTRICITY":"0.00051280","INCLINATION":"55.2994","RA_OF_ASC_NODE":"92.3767","ARG_OF_PERICENTER":"301.7450","MEAN_ANOMALY":"238.3832","EPHEMERIS_TYPE":"0","CLASSIFICATION_TYPE":"U","NORAD_CAT_ID":"37847","ELEMENT_SET_NO":"999","REV_AT_EPOCH":"2255","BSTAR":"0.00000000000000","MEAN_MOTION_DOT":"-0.00000046","MEAN_MOTION_DDOT":"0.0000000000000","SEMIMAJOR_AXIS":"29600.283","PERIOD":"844.702","APOAPSIS":"23237.328","PERIAPSIS":"23206.969","OBJECT_TYPE":"PAYLOAD","RCS_SIZE":"LARGE","COUNTRY_CODE":"ESA","LAUNCH_DATE":"2011-10-21","SITE":"FRGUI","DECAY_DATE":null,"FILE":"1885814","GP_ID":"99452465","TLE_LINE0":"0 GALILEO-FM2","TLE_LINE1":"1 37847U 11060B   15163.86089713 -.00000046 +00000-0 +00000-0 0  9996","TLE_LINE2":"2 37847 055.2994 092.3767 0005128 301.7450 238.3832 01.70474309022553"},{"CCSDS_OMM_VERS":"2.0","COMMENT":"GENERATED VIA SPACE-TRACK.ORG API","CREATION_DATE":"2015-06-16T18:53:46","ORIGINATOR":"18 SPCS","OBJECT_NAME":"GALILEO-FM2","OBJECT_ID":"2011-060B","CENTER_NAME":"EARTH","REF_FRAME":"TEME","TIME_SYSTEM":"UTC","MEAN_ELEMENT_THEORY":"SGP4","EPOCH":"2015-06-14T14:24:54.910656","MEAN_MOTION":"1.70474350","ECCENTRICITY":"0.00050650","INCLINATION":"55.3004","RA_OF_ASC_NODE":"92.3277","ARG_OF_PERICENTER":"302.1601","MEAN_ANOMALY":"225.6868","EPHEMERIS_TYPE":"0","CLASSIFICATION_TYPE":"U","NORAD_CAT_ID":"37847","ELEMENT_SET_NO":"999","REV_AT_EPOCH":"2258","BSTAR":"0.00000000000000","MEAN_MOTION_DOT":"-0.00000053","MEAN_MOTION_DDOT":"0.0000000000000","SEMIMAJOR_AXIS":"29600.279","PERIOD":"844.701","APOAPSIS":"23237.136","PERIAPSIS":"23207.151","OBJECT_TYPE":"PAYLOAD","RCS_SIZE":"LARGE","COUNTRY_CODE":"ESA","LAUNCH_DATE":"2011-10-21","SITE":"FRGUI","DECAY_DATE":null,"FILE":"1885706","GP_ID":"99440534","TLE_LINE0":"0 GALILEO-FM2","TLE_LINE1":"1 37847U 11060B   15165.60063554 -.00000053 +00000-0 +00000-0 0  9993","TLE_LINE2":"2 37847 055.3004 092.3277 0005065 302.1601 225.6868 01.70474350022582"},{"CCSDS_OMM_VERS":"2.0","COMMENT":"GENERATED VIA SPACE-TRACK.ORG API","CREATION_DATE":"2015-06-16T18:30:49","ORIGINATOR":"18 SPCS","OBJECT_NAME":"GALILEO-FM2","OBJECT_ID":"2011-060B","CENTER_NAME":"EARTH","REF_FRAME":"TEME","TIME_SYSTEM":"UTC","MEAN_ELEMENT_THEORY":"SGP4","EPOCH":"2015-06-15T05:14:01.497696","MEAN_MOTION":"1.70474367","ECCENTRICITY":"0.00050420","INCLINATION":"55.3008","RA_OF_ASC_NODE":"92.3103","ARG_OF_PERICENTER":"302.2865","MEAN_ANOMALY":"244.4963","EPHEMERIS_TYPE":"0","CLASSIFICATION_TYPE":"U","NORAD_CAT_ID":"37847","ELEMENT_SET_NO":"999","REV_AT_EPOCH":"2271","BSTAR":"0.00000000000000","MEAN_MOTION_DOT":"-0.00000054","MEAN_MOTION_DDOT":"0.0000000000000","SEMIMAJOR_AXIS":"29600.277","PERIOD":"844.701","APOAPSIS":"23237.067","PERIAPSIS":"23207.218","OBJECT_TYPE":"PAYLOAD","RCS_SIZE":"LARGE","COUNTRY_CODE":"ESA","LAUNCH_DATE":"2011-10-21","SITE":"FRGUI","DECAY_DATE":null,"FILE":"1885698","GP_ID":"99430919","TLE_LINE0":"0 GALILEO-FM2","TLE_LINE1":"1 37847U 11060B   15166.21807289 -.00000054 +00000-0 +00000-0 0  9993","TLE_LINE2":"2 37847 055.3008 092.3103 0005042 302.2865 244.4963 01.70474367022710"},{"CCSDS_OMM_VERS":"2.0","COMMENT":"GENERATED VIA SPACE-TRACK.ORG API","CREATION_DATE":"2015-06-17T23:12:13","ORIGINATOR":"18 SPCS","OBJECT_NAME":"GALILEO-FM2","OBJECT_ID":"2011-060B","CENTER_NAME":"EARTH","REF_FRAME":"TEME","TIME_SYSTEM":"UTC","MEAN_ELEMENT_THEORY":"SGP4","EPOCH":"2015-06-17T13:27:47.363904","MEAN_MOTION":"1.70474437","ECCENTRICITY":"0.00049570","INCLINATION":"55.3021","RA_OF_ASC_NODE":"92.2444","ARG_OF_PERICENTER":"302.6949","MEAN_ANOMALY":"241.9763","EPHEMERIS_TYPE":"0","CLASSIFICATION_TYPE":"U","NORAD_CAT_ID":"37847","ELEMENT_SET_NO":"999","REV_AT_EPOCH":"2275","BSTAR":"0.00000000000000","MEAN_MOTION_DOT":"-0.00000048","MEAN_MOTION_DDOT":"0.0000000000000","SEMIMAJOR_AXIS":"29600.269","PERIOD":"844.701","APOAPSIS":"23236.807","PERIAPSIS":"23207.461","OBJECT_TYPE":"PAYLOAD","RCS_SIZE":"LARGE","COUNTRY_CODE":"ESA","LAUNCH_DATE":"2011-10-21","SITE":"FRGUI","DECAY_DATE":null,"FILE":"1886495","GP_ID":"99512576","TLE_LINE0":"0 GALILEO-FM2","TLE_LINE1":"1 37847U 11060B   15168.56096486 -.00000048  00000-0  00000+0 0  9994","TLE_LINE2":"2 37847 055.3021 092.2444 0004957 302.6949 241.9763 01.70474437 22755"}]